#aV2019 12 11  0  0  0.00000000     288 DD+AD WGS84 FIT  NGA
## 2083 259200.00000000   300.00000000 58828 0.0000000000000
+   32     1  2  3  4  5  6  7  8  9 10 11 12 13 14 15 16 17
+         18 19 20 21 22 23 24 25 26 27 28 29 30 31 32  0  0
+          0  0  0  0  0  0  0  0  0  0  0  0  0  0  0  0  0
+          0  0  0  0  0  0  0  0  0  0  0  0  0  0  0  0  0
+          0  0  0  0  0  0  0  0  0  0  0  0  0  0  0  0  0
++         2  2  2  2  2  2  2  2  2  2  2  2  2  2  2  2  2
++         2  2  2  2  2  2  2  2  2  2  2  2  2  2  2  0  0
++         0  0  0  0  0  0  0  0  0  0  0  0  0  0  0  0  0
++         0  0  0  0  0  0  0  0  0  0  0  0  0  0  0  0  0
++         0  0  0  0  0  0  0  0  0  0  0  0  0  0  0  0  0
%c cc cc ccc ccc cccc cccc cccc cccc ccccc ccccc ccccc ccccc
%c cc cc ccc ccc cccc cccc cccc cccc ccccc ccccc ccccc ccccc
%f  0.0000000  0.000000000  0.00000000000  0.000000000000000
%f  0.0000000  0.000000000  0.00000000000  0.000000000000000
%i    0    0    0    0      0      0      0      0         0
%i    0    0    0    0      0      0      0      0         0
/*      NGA, ST. LOUIS,MO.                                  
/*   EPHEMERIS COMPUTED FROM 2 DAYS OF DATA                 
/*   EPOCHA v5 SMOOTHER                                     
/*   G1762 IERS2010 SATAF SATAPC                            
*  2019 12 11 18  5  0.00000000
P  1 -15244.408462   -304.570937  21580.703242   -226.407158                    
V  1  -7685.638338 -26709.737779  -5441.379014     -0.123713                    
P  2  14046.107786  20828.482938  -8159.364058   -364.360411                    
V  2   1393.128601  11450.870331  29265.668347     -0.074724                    
P  3 -21171.028112  10535.976851  11942.250688    -51.185089                    
V  3   8711.397957 -12777.928714  26669.824852     -0.066582                    
P  4 -24544.768167    739.124473  -9977.806682    -19.392284                    
V  4 -11676.353231  -5780.587146  28200.783179     -0.048774                    
P  5  13084.407686   8499.729361 -21640.163733     -4.562797                    
V  5 -17826.915793  20518.734963  -2544.328597     -0.005043                    
P  6   5788.913208  25736.585883   3010.014835   -150.572755                    
V  6  -3272.656607  -2925.260329  31851.129323     -0.112020                    
P  7  -8310.337030  17127.653062 -18035.300260   -167.803583                    
V  7  -8530.462130 -22171.058980 -17331.681363     -0.082078                    
P  8 -26074.016849  -5675.359705    -68.544455    -16.410596                    
V  8    620.195601  -2259.526183 -31805.793279     -0.013021                    
P  9 -17896.766948   8919.483571 -17538.654078   -105.625449                    
V  9 -21311.858343  -6429.693997  18524.820328     -0.094151                    
P 10   8154.970771 -21761.701927  12713.827306   -168.412203                    
V 10  12684.859185 -10218.758106 -25984.105117     -0.142843                    
P 11 -19211.103113   -421.057781  17710.716103   -422.323715                    
V 11 -14410.590718 -19101.064313 -15958.585070      0.110485                    
P 12  20795.846151  -5420.037190  15278.711734    174.276319                    
V 12 -13289.240762  14807.920788  23176.013868     -0.040142                    
P 13  21995.871436  13260.542881  -7042.640953    -27.300920                    
V 13  -9041.771423   -778.940412 -30161.768281      0.024264                    
P 14 -11761.093667 -16583.534230  17511.265676    -45.423821                    
V 14  20989.170862   5053.144622  19062.851530      0.022232                    
P 15  26570.058234   3236.765567    204.379546   -266.403446                    
V 15    157.100174   3580.681426 -30753.287779      0.026711                    
P 16 -10858.016585 -10215.885945 -22187.011770   -102.003861                    
V 16  20611.325944 -18401.042722  -1196.268583     -0.038640                    
P 17    364.305988  15392.598318  22077.308739    178.939227                    
V 17 -25946.836215  -7247.552511   5522.548351      0.067372                    
P 18 -16800.151698  -8973.116730  18047.661339    106.029720                    
V 18  -6614.685496 -23055.360707 -17056.019947      0.024697                    
P 19   8495.193093  16246.487798  18919.526010   -227.706352                    
V 19 -23655.603151  -6839.018685  16258.626043      0.051644                    
P 20  14165.424761 -22241.811759   1974.101572    527.636595                    
V 20   4697.583552    111.654102 -31105.572210      0.000716                    
P 21   4268.252239 -20473.091727 -15705.076677    -72.451338                    
V 21   9583.469511  19210.402222 -21170.279310      0.057706                    
P 22 -19672.798290   3575.971256  17649.605423   -776.992228                    
V 22  12066.719909 -18679.646397  17553.932512     -0.020135                    
P 23 -24556.478691   2303.527207  -9996.546080   -150.180452                    
V 23 -12260.386579  -5397.385086  27521.725712      0.023456                    
P 24  16724.375152   2038.739937  20424.147113     -6.074920                    
V 24   8286.622382  25028.951751  -8845.871875     -0.005268                    
P 25  19641.191227 -17217.817836   3732.214377    -17.376106                    
V 25  -1396.829155   5597.697489  31613.658005      0.001410                    
P 26  -3157.846128 -17642.547945 -19555.407483    103.486806                    
V 26  17511.232023 -17751.139314  13404.273653      0.081889                    
P 27 -20982.855621 -12423.329873 -11017.696340   -147.305935                    
V 27  13717.132636   1403.691146 -27688.664755     -0.116659                    
P 28  -8883.758976  20924.112081  14445.507745    751.094642                    
V 28 -13805.352856  10405.147904 -24476.261051     -0.017376                    
P 29  18923.700510  -6408.331210 -17541.119778     21.182091                    
V 29  20843.828507   7591.791742  19722.945870     -0.098585                    
P 30   -861.875616  24578.278967  -9745.530883   -103.647116                    
V 30  -6352.246068 -11268.178082 -27965.873515     -0.085983                    
P 31  -6735.872139 -25426.922270    374.237380     -9.117781                    
V 31   3295.722824   -377.112950  32015.413856     -0.025438                    
P 32  -1571.594221 -15801.353706  21367.634219    152.408174                    
V 32  26444.766176   5409.650873   5831.044016      0.114610                    
EOF
